CUBEBUG-2 (LO-74)       
1 39440U 13066AA  26187.42111588  .00003781  00000+0  35018-3 0  9998
2 39440  97.8914 136.4829 0056283 325.3135  34.4418 14.93929798679860
FUNCUBE-1 (AO-73)       
1 39444U 13066AE  26187.87556615  .00006051  00000+0  37306-3 0  9990
2 39444  97.8282 159.7358 0037536 134.9216 225.5068 15.09744377682630
UWE-3                   
1 39446U 13066AG  26187.86577681  .00002328  00000+0  20239-3 0  9997
2 39446  97.8701 144.0754 0047462 253.6272 105.9728 14.97165972680529
UNISAT-6                
1 40012U 14033C   26187.89955955  .00002309  00000+0  25102-3 0  9993
2 40012  97.7903 340.2676 0044871   5.3464 354.8222 14.88343110649095
DUCHIFAT-1              
1 40021U 14033M   26187.69409459  .00117855  00000+0  10018-2 0  9996
2 40021  98.0433 249.6610 0001149 272.1887  87.9241 15.69242725658805
QB50P1                  
1 40025U 14033R   26187.98593056  .00006736  00000+0  32910-3 0  9990
2 40025  98.0969 200.5237 0009775 149.2946 210.8860 15.18579991656036
LILACSAT-2              
1 40908U 15049K   26188.19803440  .00014591  00000+0  24251-3 0  9990
2 40908  97.4628 225.8060 0007723 165.7696 194.3775 15.52151126598851
FOX-1A (AO-85)          
1 40967U 15058D   26188.07196220  .00002020  00000+0  18776-3 0  9992
2 40967  64.7734 217.1836 0131738  48.8938 312.3460 14.91057542116533
CAS-2T & KS-1Q          
1 41847U 16066G   26188.18693954  .00001203  00000+0  17577-3 0  9998
2 41847  98.3815 263.6944 0342626  69.0010 294.7475 14.44757434507680
RADFXSAT (FOX-1B)       
1 43017U 17073E   26188.05056823  .00005556  00000+0  24356-3 0  9990
2 43017  97.4678  54.8599 0148160 259.9195  98.5293 15.12990086468395
DIWATA-2B               
1 43678U 18084H   26188.17563490  .00002464  00000+0  20029-3 0  9990
2 43678  98.1213  25.2571 0013079 108.5094 251.7551 15.00543495419212
ES'HAIL 2               
1 43700U 18090A   26188.16572670  .00000159  00000+0  00000+0 0  9994
2 43700   0.0188 293.5661 0002324 217.6181 219.4262  1.00272453 27876
FOX-1CLIFF (AO-95)      
1 43770U 18099N   26188.13093529  .00008409  00000+0  31834-3 0  9997
2 43770  97.4371 248.3079 0006930 274.3916  85.6531 15.27157172416262
ITASAT                  
1 43786U 18099AE  26187.71598029  .00004636  00000+0  22248-3 0  9999
2 43786  97.4015 238.8395 0010723 284.8338  75.1709 15.19312324415878
JY1SAT (JO-97)          
1 43803U 18099AX  26186.62217810  .00022572  00000+0  68069-3 0  9994
2 43803  97.4115 249.5264 0005983 188.7802 171.3337 15.34293802416450
UWE-4                   
1 43880U 18111E   26186.78293923  .00043173  00000+0  84254-3 0  9994
2 43880  97.5843 116.0459 0004683 235.7756 124.3050 15.47365913413651
TIANYAN 01              
1 44881U 19093C   26188.17099715  .00001523  00000+0  17766-3 0  9991
2 44881  97.7520 259.9155 0014289  27.3059 332.8905 14.86556762354386
RS-44 & BREEZE-KM R/B   
1 44909U 19096E   26187.86313613  .00000022  00000+0  35196-4 0  9997
2 44909  82.5236 326.6298 0218594  98.3774 264.2172 12.79748950304864
SALSAT                  
1 46495U 20068K   26187.96288697  .00005977  00000+0  20799-3 0  9990
2 46495  97.8858 192.2352 0008388 224.1445 135.9125 15.30092809318384
XW-3 (CAS-9)            
1 50466U 21131B   26188.18604684  .00000563  00000+0  18732-3 0  9998
2 50466  98.4982 280.4681 0004986  50.9575 309.2057 14.41377748237992
GREENCUBE (IO-117)      
1 53109U 22080E   26187.32757832 -.00000003  00000+0  00000+0 0  9993
2 53109  70.1428 291.5893 0008965 285.5832  74.3838  6.42583225 93293
UMKA 1 (RS40S)          
1 57172U 23091G   26188.16022462  .00004648  00000+0  21194-3 0  9996
2 57172  97.5037 246.7822 0013731  55.5418 304.7112 15.21060637167046
CUBESX-HSE 3 (RS42S)    
1 57178U 23091N   26188.16759506  .00009486  00000+0  31149-3 0  9994
2 57178  97.5077 254.0129 0010542  30.3133 329.8716 15.31747800167481
MONITOR-3 (RS58S)       
1 57180U 23091Q   26188.17131955  .00007739  00000+0  28322-3 0  9998
2 57180  97.5070 251.7680 0011846  37.1438 323.0619 15.28265624167342
MONITOR-4 (RS57S)       
1 57182U 23091S   26188.14926705  .00007869  00000+0  28720-3 0  9998
2 57182  97.5064 251.7181 0011856  37.5552 322.6514 15.28351604167348
MONITOR-2 (RS39S)       
1 57184U 23091U   26188.20682529  .00003465  00000+0  16812-3 0  9997
2 57184  97.5059 246.3613 0012130  49.7841 310.4452 15.19105902166990
SVYATOBOR 1 (RS60S)     
1 57187U 23091X   26188.11437176  .00006992  00000+0  26659-3 0  9994
2 57187  97.5076 252.0447 0009580  32.3071 327.8752 15.26972400167358
VIZARD-METEO (RS38S)    
1 57189U 23091Z   26188.14311267  .00013231  00000+0  37102-3 0  9990
2 57189  97.5078 258.0359 0006461  11.5125 348.6265 15.36696631167758
POLYTECH-UNIVERSE 3 (R*)
1 57191U 23091AB  26188.16546007  .00004113  00000+0  19739-3 0  9992
2 57191  97.5034 245.8244 0016693  63.6796 296.6151 15.19316024166986
UTMN 2 (RS27S)          
1 57203U 23091AP  26188.17437523  .00009340  00000+0  29923-3 0  9992
2 57203  97.5074 255.6778 0007595  19.5674 340.5857 15.32568801167600
