OBJECT_NAME,OBJECT_ID,EPOCH,MEAN_MOTION,ECCENTRICITY,INCLINATION,RA_OF_ASC_NODE,ARG_OF_PERICENTER,MEAN_ANOMALY,EPHEMERIS_TYPE,CLASSIFICATION_TYPE,NORAD_CAT_ID,ELEMENT_SET_NO,REV_AT_EPOCH,BSTAR,MEAN_MOTION_DOT,MEAN_MOTION_DDOT
CUBEBUG-2 (LO-74),2013-066AA,2026-07-06T10:06:24.412032,14.93929798,.0056283,97.8914,136.4829,325.3135,34.4418,0,U,39440,999,67986,.35018E-3,.3781E-4,0
FUNCUBE-1 (AO-73),2013-066AE,2026-07-06T21:00:48.915360,15.09744377,.0037536,97.8282,159.7358,134.9216,225.5068,0,U,39444,999,68263,.37306E-3,.6051E-4,0
UWE-3,2013-066AG,2026-07-06T20:46:43.116384,14.97165972,.0047462,97.8701,144.0754,253.6272,105.9728,0,U,39446,999,68052,.20239E-3,.2328E-4,0
UNISAT-6,2014-033C,2026-07-06T21:35:21.945120,14.88343110,.0044871,97.7903,340.2676,5.3464,354.8222,0,U,40012,999,64909,.25102E-3,.2309E-4,0
DUCHIFAT-1,2014-033M,2026-07-06T16:39:29.772576,15.69242725,.0001149,98.0433,249.6610,272.1887,87.9241,0,U,40021,999,65880,.10018E-2,.117855E-2,0
QB50P1,2014-033R,2026-07-06T23:39:44.400384,15.18579991,.0009775,98.0969,200.5237,149.2946,210.8860,0,U,40025,999,65603,.3291E-3,.6736E-4,0
LILACSAT-2,2015-049K,2026-07-07T04:45:10.172160,15.52151126,.0007723,97.4628,225.8060,165.7696,194.3775,0,U,40908,999,59885,.24251E-3,.14591E-3,0
FOX-1A (AO-85),2015-058D,2026-07-07T01:43:37.534080,14.91057542,.0131738,64.7734,217.1836,48.8938,312.3460,0,U,40967,999,11653,.18776E-3,.202E-4,0
CAS-2T & KS-1Q,2016-066G,2026-07-07T04:29:11.576256,14.44757434,.0342626,98.3815,263.6944,69.0010,294.7475,0,U,41847,999,50768,.17577E-3,.1203E-4,0
RADFXSAT (FOX-1B),2017-073E,2026-07-07T01:12:49.095072,15.12990086,.014816,97.4678,54.8599,259.9195,98.5293,0,U,43017,999,46839,.24356E-3,.5556E-4,0
DIWATA-2B,2018-084H,2026-07-07T04:12:54.855360,15.00543495,.0013079,98.1213,25.2571,108.5094,251.7551,0,U,43678,999,41921,.20029E-3,.2464E-4,0
ES'HAIL 2,2018-090A,2026-07-07T03:58:38.786880,1.00272453,.0002324,0.0188,293.5661,217.6181,219.4262,0,U,43700,999,2787,0,.159E-5,0
FOX-1CLIFF (AO-95),2018-099N,2026-07-07T03:08:32.809056,15.27157172,.000693,97.4371,248.3079,274.3916,85.6531,0,U,43770,999,41626,.31834E-3,.8409E-4,0
ITASAT,2018-099AE,2026-07-06T17:11:00.697056,15.19312324,.0010723,97.4015,238.8395,284.8338,75.1709,0,U,43786,999,41587,.22248E-3,.4636E-4,0
JY1SAT (JO-97),2018-099AX,2026-07-05T14:55:56.187840,15.34293802,.00059834,97.4115,249.5264,188.7802,171.3337,0,U,43803,999,41645,.68069126E-3,.22572E-3,0
UWE-4,2018-111E,2026-07-05T18:47:25.949472,15.47365913,.00046839,97.5843,116.0459,235.7756,124.3050,0,U,43880,999,41365,.84254427E-3,.43173E-3,0
TIANYAN 01,2019-093C,2026-07-07T04:06:14.153760,14.86556762,.0014289,97.7520,259.9155,27.3059,332.8905,0,U,44881,999,35438,.17766E-3,.1523E-4,0
RS-44 & BREEZE-KM R/B,2019-096E,2026-07-06T20:42:54.961632,12.79748950,.0218594,82.5236,326.6298,98.3774,264.2172,0,U,44909,999,30486,.35196E-4,.22E-6,0
SALSAT,2020-068K,2026-07-06T23:06:33.434208,15.30092809,.0008388,97.8858,192.2352,224.1445,135.9125,0,U,46495,999,31838,.20799E-3,.5977E-4,0
XW-3 (CAS-9),2021-131B,2026-07-07T04:27:54.446976,14.41377748,.0004986,98.4982,280.4681,50.9575,309.2057,0,U,50466,999,23799,.18732E-3,.563E-5,0
GREENCUBE (IO-117),2022-080E,2026-07-06T07:51:42.766848,6.42583225,.0008965,70.1428,291.5893,285.5832,74.3838,0,U,53109,999,9329,0,-.3E-7,0
UMKA 1 (RS40S),2023-091G,2026-07-07T03:50:43.407168,15.21060637,.0013731,97.5037,246.7822,55.5418,304.7112,0,U,57172,999,16704,.21194E-3,.4648E-4,0
CUBESX-HSE 3 (RS42S),2023-091N,2026-07-07T04:01:20.213184,15.31747800,.0010542,97.5077,254.0129,30.3133,329.8716,0,U,57178,999,16748,.31149E-3,.9486E-4,0
MONITOR-3 (RS58S),2023-091Q,2026-07-07T04:06:42.009120,15.28265624,.0011846,97.5070,251.7680,37.1438,323.0619,0,U,57180,999,16734,.28322E-3,.7739E-4,0
MONITOR-4 (RS57S),2023-091S,2026-07-07T03:34:56.673120,15.28351604,.0011856,97.5064,251.7181,37.5552,322.6514,0,U,57182,999,16734,.2872E-3,.7869E-4,0
MONITOR-2 (RS39S),2023-091U,2026-07-07T04:57:49.705056,15.19105902,.001213,97.5059,246.3613,49.7841,310.4452,0,U,57184,999,16699,.16812E-3,.3465E-4,0
SVYATOBOR 1 (RS60S),2023-091X,2026-07-07T02:44:41.720064,15.26972400,.000958,97.5076,252.0447,32.3071,327.8752,0,U,57187,999,16735,.26659E-3,.6992E-4,0
VIZARD-METEO (RS38S),2023-091Z,2026-07-07T03:26:04.934688,15.36696631,.0006461,97.5078,258.0359,11.5125,348.6265,0,U,57189,999,16775,.37102E-3,.13231E-3,0
POLYTECH-UNIVERSE 3 (RS46S),2023-091AB,2026-07-07T03:58:15.750048,15.19316024,.0016693,97.5034,245.8244,63.6796,296.6151,0,U,57191,999,16698,.19739E-3,.4113E-4,0
UTMN 2 (RS27S),2023-091AP,2026-07-07T04:11:06.019872,15.32568801,.0007595,97.5074,255.6778,19.5674,340.5857,0,U,57203,999,16760,.29923E-3,.934E-4,0
